NORAD_CAT_ID,OBJECT_NAME,OBJECT_TYPE,EPOCH,MEAN_MOTION,ECCENTRICITY,INCLINATION,RA_OF_ASC_NODE,ARG_OF_PERICENTER,MEAN_ANOMALY,BSTAR,MEAN_MOTION_DOT,MEAN_MOTION_DDOT,TLE_LINE0,TLE_LINE1,TLE_LINE2,SEMIMAJOR_AXIS,PERIOD,APOGEE,PERIGEE,DECAYED
54195.0,STARLINK-5258,PAYLOAD,2023-07-17 18:09:15,15.08837013,8.94e-05,53.2166,10.4441,89.4114,270.6981,0.00013199,1.813e-05,0.0,0 STARLINK-5258,1 54195U 22141AQ  23198.75643093  .00001813  00000-0  13199-3 0  9993,2 54195  53.2166  10.4441 0000894  89.4114 270.6981 15.08837013 40408,6917.89,95.438,540.373,539.136,0.0
54195.0,STARLINK-5258,PAYLOAD,2023-07-19 09:53:54,15.08832283,0.0001142,53.219,3.0131,74.4395,285.6724,8.7654e-06,-1.48e-06,0.0,0 STARLINK-5258,1 54195U 22141AQ  23200.41244074 -.00000148  00000-0  87654-5 0  9996,2 54195  53.2190   3.0131 0001142  74.4395 285.6724 15.08832283 40653,6917.904,95.438,540.559,538.979,0.0
54195.0,STARLINK-5258,PAYLOAD,2023-07-20 16:06:13,15.08842831,0.0001308,53.2194,357.3606,108.0029,252.1106,7.4739e-05,9.02e-06,0.0,0 STARLINK-5258,1 54195U 22141AQ  23201.67099468  .00000902  00000-0  74739-4 0  9996,2 54195  53.2194 357.3606 0001308 108.0029 252.1106 15.08842831 40845,6917.872,95.437,540.642,538.832,0.0
54195.0,STARLINK-5258,PAYLOAD,2023-07-24 09:07:49,15.08842782,0.0001057,53.2184,340.7079,89.4177,270.6936,6.4326e-05,7.36e-06,0.0,0 STARLINK-5258,1 54195U 22141AQ  23205.38043302  .00000736  00000-0  64326-4 0  9990,2 54195  53.2184 340.7079 0001057  89.4177 270.6936 15.08842782 41179,6917.872,95.437,540.468,539.006,0.0
54195.0,STARLINK-5258,PAYLOAD,2023-07-25 12:09:23,15.08831262,0.0002037,53.2171,335.6548,98.3834,261.7389,-3.9777e-05,-9.21e-06,0.0,0 STARLINK-5258,1 54195U 22141AQ  23206.50652407 -.00000921  00000-0 -39777-4 0  9997,2 54195  53.2171 335.6548 0002037  98.3834 261.7389 15.08831262 41340,6917.907,95.438,541.181,538.363,0.0
54195.0,STARLINK-5258,PAYLOAD,2023-07-26 08:49:23,15.08874806,0.0001081,53.2175,331.7875,105.2445,254.8667,-0.00048375,-7.986e-05,0.0,0 STARLINK-5258,1 54195U 22141AQ  23207.36763561 -.00007986  00000-0 -48375-3 0  9997,2 54195  53.2175 331.7875 0001081 105.2445 254.8667 15.08874806 41475,6917.774,95.435,540.387,538.891,0.0
54195.0,STARLINK-5258,PAYLOAD,2023-07-27 00:43:14,15.08839799,0.0001221,53.2171,328.8143,94.01,266.1032,0.00018327,2.63e-05,0.0,0 STARLINK-5258,1 54195U 22141AQ  23208.03003399  .00002630  00000-0  18327-3 0  9991,2 54195  53.2171 328.8143 0001221  94.0100 266.1032 15.08839799 41806,6917.881,95.438,540.591,538.901,0.0
54195.0,STARLINK-5258,PAYLOAD,2023-07-27 08:40:11,15.08827086,0.0001371,53.2192,327.3282,99.8675,260.2472,1.3413e-05,-7.4e-07,0.0,0 STARLINK-5258,1 54195U 22141AQ  23208.36124955 -.00000074  00000-0  13413-4 0  9992,2 54195  53.2192 327.3282 0001371  99.8675 260.2472 15.08827086 41857,6917.92,95.438,540.733,538.836,0.0
54195.0,STARLINK-5258,PAYLOAD,2023-07-27 15:01:44,15.08833992,0.0001626,53.2178,326.1379,94.3087,265.8091,5.3729e-05,5.67e-06,0.0,0 STARLINK-5258,1 54195U 22141AQ  23208.62620579  .00000567  00000-0  53729-4 0  9994,2 54195  53.2178 326.1379 0001626  94.3087 265.8091 15.08833992 41890,6917.899,95.438,540.889,538.639,0.0
54195.0,STARLINK-5258,PAYLOAD,2023-07-28 08:30:59,15.08834024,0.0001617,53.2193,322.868,96.9634,263.1542,-2.1787e-05,-6.35e-06,0.0,0 STARLINK-5258,1 54195U 22141AQ  23209.35485155 -.00000635  00000-0 -21787-4 0  9991,2 54195  53.2193 322.8680 0001617  96.9634 263.1542 15.08834024 41777,6917.899,95.438,540.882,538.645,0.0
54195.0,STARLINK-5258,PAYLOAD,2023-07-29 00:24:49,15.08845079,0.0001131,53.2192,319.8948,111.7663,248.3449,-2.4801e-05,-6.83e-06,0.0,0 STARLINK-5258,1 54195U 22141AQ  23210.01724344 -.00000683  00000-0 -24801-4 0  9995,2 54195  53.2192 319.8948 0001131 111.7663 248.3449 15.08845079 42109,6917.865,95.437,540.512,538.947,0.0
54195.0,STARLINK-5258,PAYLOAD,2023-07-29 08:21:45,15.08834327,0.000119,53.2198,318.4085,92.7758,267.337,0.00014865,2.078e-05,0.0,0 STARLINK-5258,1 54195U 22141AQ  23210.34844742  .00002078  00000-0  14865-3 0  9992,2 54195  53.2198 318.4085 0001190  92.7758 267.3370 15.08834327 42153,6917.898,95.438,540.586,538.939,0.0
54195.0,STARLINK-5258,PAYLOAD,2023-07-30 06:37:09,15.08847655,0.0001233,53.2205,314.2456,95.6509,264.4624,0.00010326,1.356e-05,0.0,0 STARLINK-5258,1 54195U 22141AQ  23211.27580075  .00001356  00000-0  10326-3 0  9997,2 54195  53.2205 314.2456 0001233  95.6509 264.4624 15.08847655 42295,6917.857,95.437,540.575,538.869,0.0
54195.0,STARLINK-5258,PAYLOAD,2023-07-31 06:27:56,15.08839847,0.000128,53.2182,309.7838,93.9222,266.1917,1.9856e-05,2.8e-07,0.0,0 STARLINK-5258,1 54195U 22141AQ  23212.26940481  .00000028  00000-0  19856-4 0  9991,2 54195  53.2182 309.7838 0001280  93.9222 266.1917 15.08839847 42442,6917.881,95.438,540.631,538.86,0.0
54195.0,STARLINK-5258,PAYLOAD,2023-08-01 11:04:52,15.08841792,0.0001212,53.2165,304.4299,87.5268,272.5863,-2.8481e-05,-7.41e-06,0.0,0 STARLINK-5258,1 54195U 22141AQ  23213.46172449 -.00000741  00000-0 -28481-4 0  9993,2 54195  53.2165 304.4299 0001212  87.5268 272.5863 15.08841792 42623,6917.875,95.437,540.578,538.901,0.0
54195.0,STARLINK-5258,PAYLOAD,2023-08-02 12:31:03,15.08840689,0.0001181,53.217,299.672,89.9227,270.1901,8.6718e-05,1.093e-05,0.0,0 STARLINK-5258,1 54195U 22141AQ  23214.52156391  .00001093  00000-0  86718-4 0  9995,2 54195  53.2170 299.6720 0001181  89.9227 270.1901 15.08840689 42787,6917.878,95.438,540.56,538.926,0.0
54195.0,STARLINK-5258,PAYLOAD,2023-08-04 09:01:52,15.08832608,0.0001181,53.2174,291.3473,97.8667,262.2459,-2.3929e-05,-6.69e-06,0.0,0 STARLINK-5258,1 54195U 22141AQ  23216.37629636 -.00000669  00000-0 -23929-4 0  9992,2 54195  53.2174 291.3473 0001181  97.8667 262.2459 15.08832608 43065,6917.903,95.438,540.585,538.951,0.0
54195.0,STARLINK-5258,PAYLOAD,2023-08-05 10:28:01,15.0884617,0.0001229,53.217,286.5891,107.4473,252.6654,7.8659e-05,9.64e-06,0.0,0 STARLINK-5258,1 54195U 22141AQ  23217.43612768  .00000964  00000-0  78659-4 0  9994,2 54195  53.2170 286.5891 0001229 107.4473 252.6654 15.08846170 43224,6917.862,95.437,540.577,538.876,0.0
54195.0,STARLINK-5258,PAYLOAD,2023-08-06 08:43:25,15.08836497,0.0001188,53.2162,282.4265,84.961,275.1517,0.00011849,1.598e-05,0.0,0 STARLINK-5258,1 54195U 22141AQ  23218.36349419  .00001598  00000-0  11849-3 0  9998,2 54195  53.2162 282.4265 0001188  84.9610 275.1517 15.08836497 43365,6917.891,95.438,540.578,538.934,0.0
54195.0,STARLINK-5258,PAYLOAD,2023-08-07 10:09:35,15.08841122,0.0001062,53.215,277.6681,77.387,282.724,5.8172e-05,6.38e-06,0.0,0 STARLINK-5258,1 54195U 22141AQ  23219.42333333  .00000638  00000-0  58172-4 0  9999,2 54195  53.2150 277.6681 0001062  77.3870 282.7240 15.08841122 43521,6917.877,95.437,540.477,539.007,0.0
54195.0,STARLINK-5258,PAYLOAD,2023-08-08 13:11:09,15.08845724,0.0001113,53.2142,272.6126,74.7311,285.3804,0.00020042,2.904e-05,0.0,0 STARLINK-5258,1 54195U 22141AQ  23220.54941439  .00002904  00000-0  20042-3 0  9998,2 54195  53.2142 272.6126 0001113  74.7311 285.3804 15.08845724 43694,6917.863,95.437,540.498,538.958,0.0
54195.0,STARLINK-5258,PAYLOAD,2023-08-09 03:29:38,15.0883901,0.0001207,53.2149,269.937,78.3356,281.7771,0.00013633,1.882e-05,0.0,0 STARLINK-5258,1 54195U 22141AQ  23221.14557914  .00001882  00000-0  13633-3 0  9998,2 54195  53.2149 269.9370 0001207  78.3356 281.7771 15.08839010 43788,6917.883,95.438,540.583,538.913,0.0
54195.0,STARLINK-5258,PAYLOAD,2023-08-10 09:41:57,15.0884396,0.0001187,53.2152,264.2862,84.3653,275.7475,0.00012969,1.777e-05,0.0,0 STARLINK-5258,1 54195U 22141AQ  23222.40413648  .00001777  00000-0  12969-3 0  9997,2 54195  53.2152 264.2862 0001187  84.3653 275.7475 15.08843960 43974,6917.868,95.437,540.554,538.912,0.0
54195.0,STARLINK-5258,PAYLOAD,2023-08-11 01:35:49,15.08837273,0.000119,53.2151,261.3128,84.5854,275.5274,8.2952e-05,1.032e-05,0.0,0 STARLINK-5258,1 54195U 22141AQ  23223.06653991  .00001032  00000-0  82952-4 0  9991,2 54195  53.2151 261.3128 0001190  84.5854 275.5274 15.08837273 44072,6917.889,95.438,540.577,538.93,0.0
54195.0,STARLINK-5258,PAYLOAD,2023-08-12 07:48:08,15.08840259,0.0001159,53.2162,255.6632,86.4787,273.6338,4.2838e-05,3.94e-06,0.0,0 STARLINK-5258,1 54195U 22141AQ  23224.32510089  .00000394  00000-0  42838-4 0  9990,2 54195  53.2162 255.6632 0001159  86.4787 273.6338 15.08840259 44260,6917.88,95.438,540.546,538.943,0.0
54195.0,STARLINK-5258,PAYLOAD,2023-08-13 18:46:37,15.08841632,0.0001074,53.2157,249.1199,90.2644,269.8472,8.5855e-05,1.079e-05,0.0,0 STARLINK-5258,1 54195U 22141AQ  23225.78237927  .00001079  00000-0  85855-4 0  9995,2 54195  53.2157 249.1199 0001074  90.2644 269.8472 15.08841632 44487,6917.875,95.437,540.483,538.997,0.0
54195.0,STARLINK-5258,PAYLOAD,2023-08-15 00:58:57,15.08840727,0.0001174,53.2161,243.4695,90.3765,269.7362,6.9369e-05,8.16e-06,0.0,0 STARLINK-5258,1 54195U 22141AQ  23227.04094066  .00000816  00000-0  69369-4 0  9991,2 54195  53.2161 243.4695 0001174  90.3765 269.7362 15.08840727 44678,6917.878,95.438,540.555,538.931,0.0
54195.0,STARLINK-5258,PAYLOAD,2023-08-16 07:11:17,15.08838429,0.0001177,53.2159,237.8197,88.2464,271.8663,3.9043e-05,3.34e-06,0.0,0 STARLINK-5258,1 54195U 22141AQ  23228.29950277  .00000334  00000-0  39043-4 0  9995,2 54195  53.2159 237.8197 0001177  88.2464 271.8663 15.08838429 44869,6917.885,95.438,540.564,538.936,0.0
54195.0,STARLINK-5258,PAYLOAD,2023-08-18 00:31:18,15.08836449,0.0001188,53.2156,230.0878,86.6284,273.4844,4.9112e-05,4.94e-06,0.0,0 STARLINK-5258,1 54195U 22141AQ  23230.02174451  .00000494  00000-0  49112-4 0  9996,2 54195  53.2156 230.0878 0001188  86.6284 273.4844 15.08836449 45120,6917.891,95.438,540.578,538.934,0.0
54195.0,STARLINK-5258,PAYLOAD,2023-08-19 08:19:01,15.08841672,0.0001221,53.2158,224.1408,87.8065,272.3067,5.5927e-05,6.02e-06,0.0,0 STARLINK-5258,1 54195U 22141AQ  23231.34654273  .00000602  00000-0  55927-4 0  9999,2 54195  53.2158 224.1408 0001221  87.8065 272.3067 15.08841672 45324,6917.875,95.437,540.585,538.896,0.0
